{
    "links": {
        "self": "http://www.neowsapp.com/rest/v1/neo/3555153?api_key=iIulBulltgU6a56xZRHN4H3l9WmuAYTsLGpBGhQ2"
    },
    "id": "3555153",
    "neo_reference_id": "3555153",
    "name": "(2011 AY22)",
    "designation": "2011 AY22",
    "nasa_jpl_url": "http://ssd.jpl.nasa.gov/sbdb.cgi?sstr=3555153",
    "absolute_magnitude_h": 27.1,
    "estimated_diameter": {
        "kilometers": {
            "estimated_diameter_min": 0.0101054342,
            "estimated_diameter_max": 0.0225964377
        },
        "meters": {
            "estimated_diameter_min": 10.1054341542,
            "estimated_diameter_max": 22.5964377109
        },
        "miles": {
            "estimated_diameter_min": 0.0062792237,
            "estimated_diameter_max": 0.0140407711
        },
        "feet": {
            "estimated_diameter_min": 33.1543125905,
            "estimated_diameter_max": 74.1352966996
        }
    },
    "is_potentially_hazardous_asteroid": false,
    "close_approach_data": [
        {
            "close_approach_date": "2011-01-14",
            "close_approach_date_full": "2011-Jan-14 14:08",
            "epoch_date_close_approach": 1295014080000,
            "relative_velocity": {
                "kilometers_per_second": "13.3463783657",
                "kilometers_per_hour": "48046.9621163526",
                "miles_per_hour": "29854.5137661303"
            },
            "miss_distance": {
                "astronomical": "0.0104767444",
                "lunar": "4.0754535716",
                "kilometers": "1567298.646774428",
                "miles": "973874.2199579864"
            },
            "orbiting_body": "Earth"
        }
    ],
    "orbital_data": {
        "orbit_id": "6",
        "orbit_determination_date": "2017-04-06 08:55:02",
        "first_observation_date": "2011-01-11",
        "last_observation_date": "2011-01-12",
        "data_arc_in_days": 1,
        "observations_used": 22,
        "orbit_uncertainty": "8",
        "minimum_orbit_intersection": ".00176283",
        "jupiter_tisserand_invariant": "3.468",
        "epoch_osculation": "2455573.5",
        "eccentricity": ".6015825454785604",
        "semi_major_axis": "2.127113166747359",
        "inclination": ".4638664786698045",
        "ascending_node_longitude": "307.6868971843757",
        "orbital_period": "1133.141957379696",
        "perihelion_distance": ".8474790133745213",
        "perihelion_argument": "218.2345736426454",
        "aphelion_distance": "3.406747320120197",
        "perihelion_time": "2455611.865519805807",
        "mean_anomaly": "347.8112472668219",
        "mean_motion": ".3177007061255346",
        "equinox": "J2000",
        "orbit_class": {
            "orbit_class_type": "APO",
            "orbit_class_description": "Near-Earth asteroid orbits which cross the Earth’s orbit similar to that of 1862 Apollo",
            "orbit_class_range": "a (semi-major axis) > 1.0 AU; q (perihelion) < 1.017 AU"
        }
    },
    "is_sentry_object": false
}